[{"OBJECT_NAME":"STARLINK-36640","OBJECT_ID":"2026-018M","EPOCH":"2026-03-09T17:46:55.316928","MEAN_MOTION":15.75204388,"ECCENTRICITY":0.00017124,"INCLINATION":97.2835,"RA_OF_ASC_NODE":134.5177,"ARG_OF_PERICENTER":79.5478,"MEAN_ANOMALY":280.598,"EPHEMERIS_TYPE":0,"CLASSIFICATION_TYPE":"U","NORAD_CAT_ID":67600,"ELEMENT_SET_NO":999,"REV_AT_EPOCH":731,"BSTAR":0.0015232884,"MEAN_MOTION_DOT":0.00233549,"MEAN_MOTION_DDOT":0},{"OBJECT_NAME":"CZ-4B R\/B","OBJECT_ID":"2025-314B","EPOCH":"2026-03-09T17:50:42.473760","MEAN_MOTION":15.91792327,"ECCENTRICITY":0.00849963,"INCLINATION":97.3538,"RA_OF_ASC_NODE":150.3267,"ARG_OF_PERICENTER":114.2763,"MEAN_ANOMALY":246.7419,"EPHEMERIS_TYPE":0,"CLASSIFICATION_TYPE":"U","NORAD_CAT_ID":67301,"ELEMENT_SET_NO":999,"REV_AT_EPOCH":1092,"BSTAR":0.00075319096,"MEAN_MOTION_DOT":0.00343879,"MEAN_MOTION_DDOT":4.660623e-5}]
